STARLINK-34013          
1 63871U 25094H   25270.25002315 -.01700441  00000+0 -82895-1 0  9990
2 63871  70.0003 286.7815 0003261 274.4374 155.2931 15.21726719  5908
STARLINK-34059          
1 63872U 25094J   25270.25002315 -.01977058  00000+0 -11279+0 0  9997
2 63872  69.9995 286.9026 0003875 272.9287  43.3763 15.16273696  5904
STARLINK-33987          
1 63873U 25094K   25270.25002315 -.01714650  00000+0 -89126-1 0  9993
2 63873  70.0004 286.7594 0003196 277.6828 170.7829 15.19572978  5867
STARLINK-34052          
1 63874U 25094L   25270.25002315 -.01965190  00000+0 -11467+0 0  9992
2 63874  69.9988 286.8219 0003437 284.2755  99.8284 15.15467612  5918
STARLINK-34023          
1 63875U 25094M   25270.22547215 -.00759745  00000+0 -39538-1 0  9990
2 63875  70.0022 286.7719 0003660 287.8871  72.1900 15.18524378 22713
STARLINK-34061          
1 63876U 25094N   25270.25002315 -.01966228  00000+0 -12792+0 0  9999
2 63876  70.0001 286.8488 0003237 282.8182  76.4446 15.11617134  5916
STARLINK-33778          
1 63877U 25094P   25270.25002315 -.01946489  00000+0 -11930+0 0  9990
2 63877  69.9986 286.7277 0003155 263.4247 205.7126 15.13704229  5542
STARLINK-33901          
1 63878U 25094Q   25270.25002315 -.02157601  00000+0 -14274+0 0  9996
2 63878  70.0008 286.7810 0003417 276.2472 144.3322 15.10760667  5852
STARLINK-33812          
1 63879U 25094R   25270.22125637 -.00760990  00000+0 -46444-1 0  9992
2 63879  69.9998 286.7521 0005294 298.6555  61.4079 15.12924104 22714
STARLINK-33779          
1 63880U 25094S   25270.25002315 -.01692447  00000+0 -93553-1 0  9999
2 63880  70.0007 286.9085 0003365 270.9956  45.4068 15.17403941  5900
STARLINK-33905          
1 63881U 25094T   25270.25002315 -.01683770  00000+0 -80339-1 0  9997
2 63881  70.0001 286.7258 0003292 273.9342 203.2800 15.22416475  5906
STARLINK-34003          
1 63882U 25094U   25270.11833326  .00064957  00000+0  14720-2 0  9996
2 63882  70.0017 286.7969 0002668 241.3910 118.7004 15.42759722 22709
STARLINK-33968          
1 63883U 25094V   25270.25002315 -.01963172  00000+0 -12679+0 0  9996
2 63883  70.0004 286.8271 0003006 284.2227  94.1253 15.11873819  5914
STARLINK-33943          
1 63884U 25094W   25270.25002315 -.01700212  00000+0 -86750-1 0  9994
2 63884  70.0000 286.6780 0003382 274.5931 244.0419 15.20175477  5808
STARLINK-33858          
1 63885U 25094X   25270.22843636 -.00775389  00000+0 -40695-1 0  9995
2 63885  70.0011 286.7809 0004241 296.9704  63.1032 15.18280478 22710
STARLINK-33885          
1 63886U 25094Y   25270.21730039 -.00776954  00000+0 -38912-1 0  9995
2 63886  70.0017 286.7413 0002783 282.2455  77.8403 15.19909071 22710
STARLINK-33904          
1 63887U 25094Z   25270.25002315 -.01948626  00000+0 -10236+0 0  9994
2 63887  69.9988 286.6252 0003649 263.3304 293.8252 15.19082407  5910
STARLINK-33981          
1 63888U 25094AA  25270.25002315 -.01715075  00000+0 -10542+0 0  9995
2 63888  70.0012 286.7571 0003185 274.0609 172.5151 15.13165630  5857
STARLINK-33738          
1 63889U 25094AB  25270.22277475 -.00755383  00000+0 -44062-1 0  9995
2 63889  70.0007 286.7352 0004260 291.8913  68.1802 15.14518591 22939
STARLINK-34116          
1 63890U 25095A   25269.62026680  .00047930  00000+0  17396-2 0  9991
2 63890  43.0029  22.9630 0001220 280.3182  79.7532 15.27587086 22698
STARLINK-34123          
1 63891U 25095B   25270.28827155  .00045685  00000+0  16584-2 0  9995
2 63891  43.0098  19.3818 0000880 205.9634 154.1173 15.27601503 22790
STARLINK-34128          
1 63892U 25095C   25269.73561145  .00033692  00000+0  12267-2 0  9997
2 63892  43.0053  22.1031 0002382 280.2981  79.7602 15.27619952 22719
STARLINK-33972          
1 63893U 25095D   25269.67794185  .00034924  00000+0  12723-2 0  9999
2 63893  43.0017  22.5325 0000890 279.2375  80.8376 15.27588917 22703
STARLINK-33973          
1 63894U 25095E   25268.66116963  .00027393  00000+0  10007-2 0  9995
2 63894  43.0039  27.7947 0001873 266.3123  93.7514 15.27599815 22554
STARLINK-34119          
1 63895U 25095F   25269.62668714  .00048444  00000+0  17568-2 0  9998
2 63895  43.0006  23.0081 0001812 277.4272  82.6374 15.27609609 22697
STARLINK-34143          
1 63896U 25095G   25269.66637382  .00042019  00000+0  15269-2 0  9998
2 63896  43.0015  22.4371 0001197 263.7311  96.3404 15.27598797 22704
STARLINK-33957          
1 63897U 25095H   25270.28441266  .00037140  00000+0  13517-2 0  9996
2 63897  43.0022  19.3460 0001613 263.8962  96.1705 15.27597439 22785
STARLINK-34120          
1 63898U 25095J   25270.29197485  .00052664  00000+0  19088-2 0  9996
2 63898  43.0023  18.5344 0001135 229.1629 130.9124 15.27595760 22803
STARLINK-34134          
1 63899U 25095K   25269.61641191  .00039015  00000+0  14195-2 0  9998
2 63899  43.0019  22.9305 0000683 258.5409 101.5366 15.27587309 22693
STARLINK-34118          
1 63900U 25095L   25269.75360709  .00035117  00000+0  12781-2 0  9997
2 63900  43.0041  22.2402 0001161 276.0524  84.0195 15.27617157 22710
STARLINK-34125          
1 63901U 25095M   25269.73946722  .00055210  00000+0  19972-2 0  9996
2 63901  43.0036  22.1330 0001458 271.6012  88.4673 15.27640531 22706
STARLINK-33955          
1 63902U 25095N   25268.33680839  .00057306  00000+0  20741-2 0  9990
2 63902  43.0033  29.6608 0000851 314.8823  45.1959 15.27608930 22490
STARLINK-34097          
1 63903U 25095P   25269.66380315  .00054896  00000+0  19873-2 0  9999
2 63903  43.0026  22.4191 0001325 263.6608  96.4093 15.27618127 22699
STARLINK-34092          
1 63904U 25095Q   25269.62797568  .00057450  00000+0  20794-2 0  9991
2 63904  43.0016  23.0167 0001399 267.0559  93.0133 15.27605725 22680
STARLINK-34114          
1 63905U 25095R   25270.28955826  .00036806  00000+0  13405-2 0  9992
2 63905  43.0008  19.3797 0001354 210.1832 149.8942 15.27576768 22786
STARLINK-33770          
1 63906U 25095S   25269.65352625  .00055062  00000+0  19936-2 0  9990
2 63906  43.0036  22.3409 0001391 269.5154  90.5538 15.27612400 22695
STARLINK-34106          
1 63907U 25095T   25270.30353149  .00058685  00000+0  21217-2 0  9996
2 63907  43.0060  18.6220 0004296 288.1235  71.9148 15.27628664 22796
STARLINK-34083          
1 63908U 25095U   25270.28569659  .00062910  00000+0  22725-2 0  9990
2 63908  43.0031  19.3553 0000818 266.0930  93.9828 15.27633405 22782
STARLINK-34066          
1 63909U 25095V   25269.61769600  .00061038  00000+0  22076-2 0  9993
2 63909  43.0035  22.9357 0001701 270.2448  89.8209 15.27605522 22687
STARLINK-34071          
1 63910U 25095W   25269.75488883  .00041828  00000+0  15192-2 0  9997
2 63910  43.0027  22.2477 0001490 261.3912  98.6771 15.27616587 22706
STARLINK-34038          
1 63911U 25095X   25269.80614027  .00050517  00000+0  18308-2 0  9992
2 63911  43.0022  21.7666 0001666 277.8511  82.2152 15.27614350 22717
STARLINK-34031          
1 63912U 25095Y   25269.67922503  .00056356  00000+0  20400-2 0  9992
2 63912  43.0017  22.5381 0001433 261.2495  98.8194 15.27609239 22691
STARLINK-34070          
1 63913U 25095Z   25269.67151712  .00045951  00000+0  16681-2 0  9994
2 63913  43.0020  22.4778 0001373 283.4567  76.6132 15.27597644 22696
STARLINK-34068          
1 63914U 25095AA  25269.66122711  .00056294  00000+0  20376-2 0  9999
2 63914  43.0037  22.3987 0002286 277.9147  82.1445 15.27611995 22697
STARLINK-34076          
1 63915U 25095AB  25269.79842387  .00045695  00000+0  16572-2 0  9998
2 63915  42.9995  21.7040 0001153 264.3553  95.7167 15.27632204 22715
STARLINK-33910          
1 63916U 25095AC  25270.29968311  .00035745  00000+0  13010-2 0  9991
2 63916  42.9981  18.5839 0001738 135.0015 225.0978 15.27610755 22790
STARLINK-34075          
1 63917U 25095AD  25269.72276499  .00045900  00000+0  16653-2 0  9997
2 63917  43.0040  22.0016 0001316 259.4240 100.6463 15.27616588 22707
STARLINK-34012          
1 63926U 25098A   25270.22274574  .00008223  00000+0  69593-3 0  9998
2 63926  70.0027 326.7386 0003198 268.2725  91.8068 14.98343293 22105
STARLINK-33956          
1 63927U 25098B   25270.24358469  .00004347  00000+0  37181-3 0  9998
2 63927  70.0018 326.4037 0003368 270.6709  89.4064 14.98336643 22092
STARLINK-33997          
1 63928U 25098C   25270.23528767  .00026018  00000+0  21797-2 0  9992
2 63928  70.0007 326.7732 0004080 270.6957  89.3734 14.98336412 22089
STARLINK-33989          
1 63929U 25098D   25270.27714389  .00002083  00000+0  18234-3 0  9993
2 63929  70.0024 326.5246 0003245 272.9173  87.1615 14.98332410 22093
STARLINK-33980          
1 63930U 25098E   25270.29784827  .00005898  00000+0  50155-3 0  9996
2 63930  70.0016 326.5987 0003878 269.3598  90.7116 14.98337427 22090
STARLINK-33994          
1 63931U 25098F   25270.27296832  .00003565  00000+0  30633-3 0  9997
2 63931  70.0028 326.5095 0002616 260.3183  99.7681 14.98336591 22091
STARLINK-33971          
1 63932U 25098G   25270.29384070  .00001914  00000+0  16811-3 0  9990
2 63932  70.0021 326.5843 0003971 268.9533  91.1171 14.98331929 22094
STARLINK-33877          
1 63933U 25098H   25270.24792268  .00003866  00000+0  33153-3 0  9994
2 63933  70.0023 326.4154 0003531 264.3046  95.7710 14.98342097 22099
STARLINK-33895          
1 63934U 25098J   25270.25627375  .00002284  00000+0  19914-3 0  9994
2 63934  70.0020 326.4488 0003004 269.8722  90.2093 14.98334869 22095
STARLINK-34005          
1 63935U 25098K   25270.29800886  .00007943  00000+0  67277-3 0  9991
2 63935  70.0022 326.5903 0003465 268.8785  91.1977 14.98328398 22091
STARLINK-34027          
1 63936U 25098L   25270.23957617 -.00003114  00000+0 -25319-3 0  9990
2 63936  70.0017 326.3871 0002856 260.1282  99.9554 14.98342978 22073
STARLINK-34035          
1 63937U 25098M   25270.26879449  .00003988  00000+0  34178-3 0  9990
2 63937  70.0025 326.4934 0003103 268.6303  91.4500 14.98337369 22073
